OBJECT_NAME,OBJECT_ID,EPOCH,MEAN_MOTION,ECCENTRICITY,INCLINATION,RA_OF_ASC_NODE,ARG_OF_PERICENTER,MEAN_ANOMALY,EPHEMERIS_TYPE,CLASSIFICATION_TYPE,NORAD_CAT_ID,ELEMENT_SET_NO,REV_AT_EPOCH,BSTAR,MEAN_MOTION_DOT,MEAN_MOTION_DDOT
IRIDIUM 138,2017-083B,2026-06-14T04:14:43.085184,14.34218464,.0002326,86.3974,322.9692,86.4185,273.7277,0,U,43071,999,44370,.21228E-4,.79E-6,0
IRIDIUM 116,2017-083C,2026-06-14T03:29:03.118272,14.34217938,.0001923,86.3960,323.2734,97.2780,262.8634,0,U,43072,999,44373,.12386E-4,.54E-6,0
IRIDIUM 130,2017-083D,2026-06-14T04:23:51.122112,14.34217234,.0001837,86.3967,323.5326,90.8150,269.3257,0,U,43073,999,44368,-.15763E-4,-.24E-6,0
IRIDIUM 151,2017-083E,2026-06-14T03:47:19.180896,14.34217616,.0002149,86.3963,323.3258,92.6130,267.5312,0,U,43074,999,44370,-.28806E-6,.19E-6,0
IRIDIUM 134,2017-083F,2026-06-14T04:42:07.121664,14.34217958,.0002088,86.3964,323.3179,90.3398,269.8037,0,U,43075,999,44367,.69892E-5,.39E-6,0
IRIDIUM 137,2017-083G,2026-06-14T03:19:55.149600,14.34217866,.0002167,86.3965,323.4344,103.6477,256.4960,0,U,43076,999,44373,.97168E-5,.47E-6,0
IRIDIUM 141,2017-083H,2026-06-14T04:51:15.167232,14.34217594,.0002095,86.3957,323.2389,90.8534,269.2902,0,U,43077,999,44374,-.18929E-5,.14E-6,0
IRIDIUM 153,2017-083J,2026-06-14T02:01:55.444800,14.34217668,.0002292,86.3957,291.7682,90.1865,269.9593,0,U,43078,999,44483,-.38919E-6,.19E-6,0
IRIDIUM 131,2017-083K,2026-06-13T23:31:35.117184,14.34218331,.0002205,86.3967,323.5174,91.9224,268.2224,0,U,43079,999,44364,.27315E-4,.96E-6,0
IRIDIUM 144,2018-030A,2026-06-14T02:11:03.342624,14.34218041,.0002089,86.3956,291.6947,96.2406,263.9028,0,U,43249,999,42969,.12906E-4,.56E-6,0
IRIDIUM 149,2018-030B,2026-06-14T02:20:11.416704,14.34217508,.0002134,86.3953,291.6592,93.7712,266.3728,0,U,43250,999,42971,-.84176E-5,-.4E-7,0
IRIDIUM 157,2018-030C,2026-06-14T01:07:07.408128,14.34217731,.0002194,86.3956,291.7333,93.9415,266.2031,0,U,43251,999,42968,-.80902E-6,.18E-6,0
IRIDIUM 140,2018-030D,2026-06-14T01:34:31.403136,14.34217589,.0002016,86.3954,291.7381,93.1977,266.9449,0,U,43252,999,42974,.48741E-6,.21E-6,0
IRIDIUM 145,2018-030E,2026-06-14T01:16:15.360384,14.34217603,.0001947,86.3955,291.7155,99.9705,260.1711,0,U,43253,999,42967,.15724E-4,.64E-6,0
IRIDIUM 146,2018-030F,2026-06-14T02:29:19.408704,14.34217594,.0001994,86.3954,291.7067,96.5293,263.6130,0,U,43254,999,42969,.94787E-6,.22E-6,0
IRIDIUM 148,2018-030G,2026-06-13T20:42:15.445728,14.34217695,.00022386,86.3956,291.8504,97.1215,263.0235,0,U,43255,999,42969,.7732417E-5,.41E-6,0
IRIDIUM 142,2018-030H,2026-06-13T21:37:03.351072,14.34218051,.0002041,86.3953,291.7235,97.3881,262.7547,0,U,43256,999,42966,.64665E-4,.201E-5,0
IRIDIUM 150,2018-030J,2026-06-14T01:52:47.418240,14.34217496,.0002023,86.3955,291.7658,93.4552,266.6875,0,U,43257,999,42971,-.40303E-5,.8E-7,0
IRIDIUM 143,2018-030K,2026-06-14T01:25:23.388672,14.34216546,.0002186,86.3962,291.8667,99.6200,260.5243,0,U,43258,999,42964,.6392E-4,.199E-5,0
IRIDIUM 161,2018-047C,2026-06-14T04:30:23.334048,14.43281474,.0002539,86.4483,89.7252,85.6777,274.4714,0,U,43478,999,42470,.79529E-4,.288E-5,0
IRIDIUM 152,2018-047D,2026-06-14T00:46:06.303360,14.34217712,.0002337,86.3959,89.6514,83.1709,276.9753,0,U,43479,999,42203,.63261E-5,.37E-6,0
IRIDIUM 147,2018-047E,2026-06-14T04:16:10.280064,14.34217515,.000214,86.3960,89.5955,85.3240,274.8200,0,U,43480,999,42205,-.16227E-5,.15E-6,0
IRIDIUM 110,2018-047F,2026-06-13T20:02:58.207488,14.34218480,.00025781,86.3962,89.8305,83.7903,276.3587,0,U,43481,999,42199,.2374584E-4,.86E-6,0
IRIDIUM 162,2018-047G,2026-06-14T04:21:19.675008,14.43280112,.0002294,86.4481,89.6189,82.7468,277.3994,0,U,43482,999,42469,.78643E-4,.285E-5,0
IRIDIUM 160,2018-061A,2026-06-14T04:47:46.506912,14.34217827,.0002275,86.3965,58.0465,86.0086,274.1369,0,U,43569,999,41294,.15291E-4,.63E-6,0
IRIDIUM 166,2018-061B,2026-06-14T03:43:50.473056,14.34217887,.0002112,86.3965,58.0156,85.8075,274.3362,0,U,43570,999,41296,.15894E-4,.64E-6,0
IRIDIUM 158,2018-061C,2026-06-14T04:38:38.513184,14.34217494,.00022,86.3963,58.0095,81.6230,278.5215,0,U,43571,999,41293,.42945E-5,.32E-6,0
IRIDIUM 165,2018-061D,2026-06-14T03:34:42.362688,14.34217326,.0002068,86.3966,58.0746,86.0831,274.0601,0,U,43572,999,41295,.35267E-4,.119E-5,0
IRIDIUM 155,2018-061E,2026-06-14T04:20:22.454016,14.34217621,.000201,86.3957,57.9303,81.9051,278.2372,0,U,43573,999,41292,.50805E-6,.21E-6,0
IRIDIUM 154,2018-061F,2026-06-14T03:52:58.262016,14.34219387,.0002104,86.3966,58.0720,87.1221,273.0216,0,U,43574,999,41297,.71551E-4,.22E-5,0
IRIDIUM 163,2018-061G,2026-06-14T03:25:33.980160,14.34216657,.0002265,86.3962,57.9953,83.4121,276.7333,0,U,43575,999,41294,.32221E-4,.11E-5,0
