IRIDIUM 138             
1 43071U 17083B   26165.17688756  .00000079  00000+0  21228-4 0  9996
2 43071  86.3974 322.9692 0002326  86.4185 273.7277 14.34218464443702
IRIDIUM 116             
1 43072U 17083C   26165.14517498  .00000054  00000+0  12386-4 0  9996
2 43072  86.3960 323.2734 0001923  97.2780 262.8634 14.34217938443736
IRIDIUM 130             
1 43073U 17083D   26165.18323058 -.00000024  00000+0 -15763-4 0  9999
2 43073  86.3967 323.5326 0001837  90.8150 269.3257 14.34217234443684
IRIDIUM 151             
1 43074U 17083E   26165.15786089  .00000019  00000+0 -28806-6 0  9991
2 43074  86.3963 323.3258 0002149  92.6130 267.5312 14.34217616443707
IRIDIUM 134             
1 43075U 17083F   26165.19591576  .00000039  00000+0  69892-5 0  9991
2 43075  86.3964 323.3179 0002088  90.3398 269.8037 14.34217958443678
IRIDIUM 137             
1 43076U 17083G   26165.13883275  .00000047  00000+0  97168-5 0  9992
2 43076  86.3965 323.4344 0002167 103.6477 256.4960 14.34217866443731
IRIDIUM 141             
1 43077U 17083H   26165.20225888  .00000014  00000+0 -18929-5 0  9994
2 43077  86.3957 323.2389 0002095  90.8534 269.2902 14.34217594443748
IRIDIUM 153             
1 43078U 17083J   26165.08466950  .00000019  00000+0 -38919-6 0  9995
2 43078  86.3957 291.7682 0002292  90.1865 269.9593 14.34217668444839
IRIDIUM 131             
1 43079U 17083K   26164.98026756  .00000096  00000+0  27315-4 0  9990
2 43079  86.3967 323.5174 0002205  91.9224 268.2224 14.34218331443642
IRIDIUM 144             
1 43249U 18030A   26165.09101091  .00000056  00000+0  12906-4 0  9997
2 43249  86.3956 291.6947 0002089  96.2406 263.9028 14.34218041429693
IRIDIUM 149             
1 43250U 18030B   26165.09735436 -.00000004  00000+0 -84176-5 0  9999
2 43250  86.3953 291.6592 0002134  93.7712 266.3728 14.34217508429715
IRIDIUM 157             
1 43251U 18030C   26165.04661352  .00000018  00000+0 -80902-6 0  9998
2 43251  86.3956 291.7333 0002194  93.9415 266.2031 14.34217731429681
IRIDIUM 140             
1 43252U 18030D   26165.06564124  .00000021  00000+0  48741-6 0  9998
2 43252  86.3954 291.7381 0002016  93.1977 266.9449 14.34217589429749
IRIDIUM 145             
1 43253U 18030E   26165.05295556  .00000064  00000+0  15724-4 0  9998
2 43253  86.3955 291.7155 0001947  99.9705 260.1711 14.34217603429672
IRIDIUM 146             
1 43254U 18030F   26165.10369686  .00000022  00000+0  94787-6 0  9993
2 43254  86.3954 291.7067 0001994  96.5293 263.6130 14.34217594429695
IRIDIUM 148             
1 43255U 18030G   26164.86267877  .00000041  00000+0  77324-5 0  9993
2 43255  86.3956 291.8504 0002238  97.1215 263.0235 14.34217695429690
IRIDIUM 142             
1 43256U 18030H   26164.90073323  .00000201  00000+0  64665-4 0  9991
2 43256  86.3953 291.7235 0002041  97.3881 262.7547 14.34218051429667
IRIDIUM 150             
1 43257U 18030J   26165.07832660  .00000008  00000+0 -40303-5 0  9998
2 43257  86.3955 291.7658 0002023  93.4552 266.6875 14.34217496429716
IRIDIUM 143             
1 43258U 18030K   26165.05929848  .00000199  00000+0  63920-4 0  9991
2 43258  86.3962 291.8667 0002186  99.6200 260.5243 14.34216546429643
IRIDIUM 161             
1 43478U 18047C   26165.18777007  .00000288  00000+0  79529-4 0  9996
2 43478  86.4483  89.7252 0002539  85.6777 274.4714 14.43281474424707
IRIDIUM 152             
1 43479U 18047D   26165.03201740  .00000037  00000+0  63261-5 0  9996
2 43479  86.3959  89.6514 0002337  83.1709 276.9753 14.34217712422037
IRIDIUM 147             
1 43480U 18047E   26165.17789676  .00000015  00000+0 -16227-5 0  9999
2 43480  86.3960  89.5955 0002140  85.3240 274.8200 14.34217515422052
IRIDIUM 110             
1 43481U 18047F   26164.83539592  .00000086  00000+0  23746-4 0  9992
2 43481  86.3962  89.8305 0002578  83.7903 276.3587 14.34218480421999
IRIDIUM 162             
1 43482U 18047G   26165.18147772  .00000285  00000+0  78643-4 0  9994
2 43482  86.4481  89.6189 0002294  82.7468 277.3994 14.43280112424699
IRIDIUM 160             
1 43569U 18061A   26165.19984383  .00000063  00000+0  15291-4 0  9998
2 43569  86.3965  58.0465 0002275  86.0086 274.1369 14.34217827412949
IRIDIUM 166             
1 43570U 18061B   26165.15544529  .00000064  00000+0  15894-4 0  9990
2 43570  86.3965  58.0156 0002112  85.8075 274.3362 14.34217887412966
IRIDIUM 158             
1 43571U 18061C   26165.19350131  .00000032  00000+0  42945-5 0  9992
2 43571  86.3963  58.0095 0002200  81.6230 278.5215 14.34217494412936
IRIDIUM 165             
1 43572U 18061D   26165.14910142  .00000119  00000+0  35267-4 0  9996
2 43572  86.3966  58.0746 0002068  86.0831 274.0601 14.34217326412957
IRIDIUM 155             
1 43573U 18061E   26165.18081544  .00000021  00000+0  50805-6 0  9995
2 43573  86.3957  57.9303 0002010  81.9051 278.2372 14.34217621412926
IRIDIUM 154             
1 43574U 18061F   26165.16178544  .00000220  00000+0  71551-4 0  9991
2 43574  86.3966  58.0720 0002104  87.1221 273.0216 14.34219387412979
IRIDIUM 163             
1 43575U 18061G   26165.14275440  .00000110  00000+0  32221-4 0  9992
2 43575  86.3962  57.9953 0002265  83.4121 276.7333 14.34216657412942
